{
  "type": "FeatureCollection",
  "features": [
    {
      "type": "Feature",
      "properties": {
        "norad_id": 66494,
        "name": "STARLINK-35689",
        "group": "last-30-days",
        "lat": 32.5164684869523,
        "lon": -142.67817307289428,
        "alt_km": 361.84445975341987,
        "timestamp": "2025-12-04T09:47:36.302335+00:00",
        "meta_object_name": "STARLINK-35689",
        "meta_object_id": "2025-263K",
        "meta_epoch": "2025-12-04T04:00:03.000096",
        "meta_mean_motion": 15.68552263,
        "meta_eccentricity": 0.0001518,
        "meta_inclination": 42.9992,
        "meta_ra_of_asc_node": 175.6046,
        "meta_arg_of_pericenter": 274.7947,
        "meta_mean_anomaly": 213.1951,
        "meta_ephemeris_type": 0,
        "meta_classification_type": "U",
        "meta_norad_cat_id": 66494,
        "meta_element_set_no": 999,
        "meta_rev_at_epoch": 425,
        "meta_bstar": -0.019185,
        "meta_mean_motion_dot": -0.01975397,
        "meta_mean_motion_ddot": 0,
        "tle_line1": "1 66494U 25263K   25338.16670139 -.01975397  00000+0 -19185-1 0  9998",
        "tle_line2": "2 66494  42.9992 175.6046 0001518 274.7947 213.1951 15.68552263  4256"
      },
      "geometry": {
        "type": "Point",
        "coordinates": [
          -142.67817307289428,
          32.5164684869523
        ]
      }
    },
    {
      "type": "Feature",
      "properties": {
        "norad_id": 66495,
        "name": "STARLINK-35832",
        "group": "last-30-days",
        "lat": 36.066557130733166,
        "lon": -134.45539571519856,
        "alt_km": 361.3419042811547,
        "timestamp": "2025-12-04T09:47:36.302345+00:00",
        "meta_object_name": "STARLINK-35832",
        "meta_object_id": "2025-263L",
        "meta_epoch": "2025-12-04T04:00:03.000096",
        "meta_mean_motion": 15.68548497,
        "meta_eccentricity": 0.0001459,
        "meta_inclination": 42.9989,
        "meta_ra_of_asc_node": 175.5846,
        "meta_arg_of_pericenter": 275.1765,
        "meta_mean_anomaly": 220.4845,
        "meta_ephemeris_type": 0,
        "meta_classification_type": "U",
        "meta_norad_cat_id": 66495,
        "meta_element_set_no": 999,
        "meta_rev_at_epoch": 425,
        "meta_bstar": -0.019152,
        "meta_mean_motion_dot": -0.01972106,
        "meta_mean_motion_ddot": 0,
        "tle_line1": "1 66495U 25263L   25338.16670139 -.01972106  00000+0 -19152-1 0  9998",
        "tle_line2": "2 66495  42.9989 175.5846 0001459 275.1765 220.4845 15.68548497  4254"
      },
      "geometry": {
        "type": "Point",
        "coordinates": [
          -134.45539571519856,
          36.066557130733166
        ]
      }
    },
    {
      "type": "Feature",
      "properties": {
        "norad_id": 66496,
        "name": "STARLINK-35909",
        "group": "last-30-days",
        "lat": 36.86270953872131,
        "lon": -132.29047210834074,
        "alt_km": 361.2886313791305,
        "timestamp": "2025-12-04T09:47:36.302357+00:00",
        "meta_object_name": "STARLINK-35909",
        "meta_object_id": "2025-263M",
        "meta_epoch": "2025-12-04T04:00:03.000096",
        "meta_mean_motion": 15.6855736,
        "meta_eccentricity": 0.0001567,
        "meta_inclination": 42.999,
        "meta_ra_of_asc_node": 175.5798,
        "meta_arg_of_pericenter": 275.2328,
        "meta_mean_anomaly": 222.3381,
        "meta_ephemeris_type": 0,
        "meta_classification_type": "U",
        "meta_norad_cat_id": 66496,
        "meta_element_set_no": 999,
        "meta_rev_at_epoch": 425,
        "meta_bstar": -0.019244,
        "meta_mean_motion_dot": -0.01981122,
        "meta_mean_motion_ddot": 0,
        "tle_line1": "1 66496U 25263M   25338.16670139 -.01981122  00000+0 -19244-1 0  9999",
        "tle_line2": "2 66496  42.9990 175.5798 0001567 275.2328 222.3381 15.68557360  4254"
      },
      "geometry": {
        "type": "Point",
        "coordinates": [
          -132.29047210834074,
          36.86270953872131
        ]
      }
    },
    {
      "type": "Feature",
      "properties": {
        "norad_id": 66497,
        "name": "STARLINK-35899",
        "group": "last-30-days",
        "lat": 37.622186553009406,
        "lon": -130.07072284317718,
        "alt_km": 361.1802025089946,
        "timestamp": "2025-12-04T09:47:36.302367+00:00",
        "meta_object_name": "STARLINK-35899",
        "meta_object_id": "2025-263N",
        "meta_epoch": "2025-12-04T04:00:03.000096",
        "meta_mean_motion": 15.68542587,
        "meta_eccentricity": 0.0001479,
        "meta_inclination": 42.9991,
        "meta_ra_of_asc_node": 175.5744,
        "meta_arg_of_pericenter": 274.4901,
        "meta_mean_anomaly": 225.0182,
        "meta_ephemeris_type": 0,
        "meta_classification_type": "U",
        "meta_norad_cat_id": 66497,
        "meta_element_set_no": 999,
        "meta_rev_at_epoch": 425,
        "meta_bstar": -0.019188,
        "meta_mean_motion_dot": -0.01974883,
        "meta_mean_motion_ddot": 0,
        "tle_line1": "1 66497U 25263N   25338.16670139 -.01974883  00000+0 -19188-1 0  9993",
        "tle_line2": "2 66497  42.9991 175.5744 0001479 274.4901 225.0182 15.68542587  4251"
      },
      "geometry": {
        "type": "Point",
        "coordinates": [
          -130.07072284317718,
          37.622186553009406
        ]
      }
    },
    {
      "type": "Feature",
      "properties": {
        "norad_id": 66498,
        "name": "STARLINK-35907",
        "group": "last-30-days",
        "lat": 38.33585034866271,
        "lon": -127.81578394413428,
        "alt_km": 361.1291527228341,
        "timestamp": "2025-12-04T09:47:36.302377+00:00",
        "meta_object_name": "STARLINK-35907",
        "meta_object_id": "2025-263P",
        "meta_epoch": "2025-12-04T04:00:03.000096",
        "meta_mean_motion": 15.68546406,
        "meta_eccentricity": 0.000154,
        "meta_inclination": 42.9991,
        "meta_ra_of_asc_node": 175.5698,
        "meta_arg_of_pericenter": 273.7205,
        "meta_mean_anomaly": 227.7021,
        "meta_ephemeris_type": 0,
        "meta_classification_type": "U",
        "meta_norad_cat_id": 66498,
        "meta_element_set_no": 999,
        "meta_rev_at_epoch": 425,
        "meta_bstar": -0.019229,
        "meta_mean_motion_dot": -0.01978965,
        "meta_mean_motion_ddot": 0,
        "tle_line1": "1 66498U 25263P   25338.16670139 -.01978965  00000+0 -19229-1 0  9995",
        "tle_line2": "2 66498  42.9991 175.5698 0001540 273.7205 227.7021 15.68546406  4253"
      },
      "geometry": {
        "type": "Point",
        "coordinates": [
          -127.81578394413428,
          38.33585034866271
        ]
      }
    },
    {
      "type": "Feature",
      "properties": {
        "norad_id": 66499,
        "name": "STARLINK-35816",
        "group": "last-30-days",
        "lat": 39.626851629248385,
        "lon": -123.18369986792453,
        "alt_km": 360.8835939491073,
        "timestamp": "2025-12-04T09:47:36.302387+00:00",
        "meta_object_name": "STARLINK-35816",
        "meta_object_id": "2025-263Q",
        "meta_epoch": "2025-12-04T04:00:03.000096",
        "meta_mean_motion": 15.68549111,
        "meta_eccentricity": 0.0001467,
        "meta_inclination": 42.9991,
        "meta_ra_of_asc_node": 175.5604,
        "meta_arg_of_pericenter": 275.4024,
        "meta_mean_anomaly": 229.8438,
        "meta_ephemeris_type": 0,
        "meta_classification_type": "U",
        "meta_norad_cat_id": 66499,
        "meta_element_set_no": 999,
        "meta_rev_at_epoch": 425,
        "meta_bstar": -0.019165,
        "meta_mean_motion_dot": -0.01973275,
        "meta_mean_motion_ddot": 0,
        "tle_line1": "1 66499U 25263Q   25338.16670139 -.01973275  00000+0 -19165-1 0  9994",
        "tle_line2": "2 66499  42.9991 175.5604 0001467 275.4024 229.8438 15.68549111  4258"
      },
      "geometry": {
        "type": "Point",
        "coordinates": [
          -123.18369986792453,
          39.626851629248385
        ]
      }
    },
    {
      "type": "Feature",
      "properties": {
        "norad_id": 66500,
        "name": "STARLINK-35894",
        "group": "last-30-days",
        "lat": 37.255035827093685,
        "lon": -131.1648835217627,
        "alt_km": 366.10962813832157,
        "timestamp": "2025-12-04T09:47:36.302399+00:00",
        "meta_object_name": "STARLINK-35894",
        "meta_object_id": "2025-263R",
        "meta_epoch": "2025-12-04T04:00:03.000096",
        "meta_mean_motion": 15.67128423,
        "meta_eccentricity": 0.0001363,
        "meta_inclination": 42.9992,
        "meta_ra_of_asc_node": 175.5739,
        "meta_arg_of_pericenter": 273.981,
        "meta_mean_anomaly": 225.9407,
        "meta_ephemeris_type": 0,
        "meta_classification_type": "U",
        "meta_norad_cat_id": 66500,
        "meta_element_set_no": 999,
        "meta_rev_at_epoch": 425,
        "meta_bstar": -0.025934,
        "meta_mean_motion_dot": -0.02492463,
        "meta_mean_motion_ddot": 0,
        "tle_line1": "1 66500U 25263R   25338.16670139 -.02492463  00000+0 -25934-1 0  9994",
        "tle_line2": "2 66500  42.9992 175.5739 0001363 273.9810 225.9407 15.67128423  4253"
      },
      "geometry": {
        "type": "Point",
        "coordinates": [
          -131.1648835217627,
          37.255035827093685
        ]
      }
    }
  ]
}